STRAND-1                
1 39090U 13009E   24366.98166214  .00001379  00000+0  48346-3 0  9999
2 39090  98.3766 189.8964 0009299  27.9918 332.1767 14.36553485620654
ZACUBE-1 (TSHEPISOSAT)  
1 39417U 13066B   24366.85670806  .00012228  00000+0  11367-2 0  9995
2 39417  97.7607 319.2531 0045169 223.8959 135.8669 14.93714349601043
DELFI-N3XT              
1 39428U 13066N   24366.49314031  .00014993  00000+0  16651-2 0  9994
2 39428  97.8385 280.3747 0091025 165.2058 195.1852 14.84280922595294
FUNCUBE-1 (AO-73)       
1 39444U 13066AE  24366.61945783  .00016918  00000+0  14080-2 0  9993
2 39444  97.7440 322.8371 0042431 200.3011 159.6526 14.98031380599604
UWE-3                   
1 39446U 13066AG  24366.82204350  .00013531  00000+0  13607-2 0  9998
2 39446  97.8065 313.1254 0054330 289.3921  70.1429 14.90232085598099
BRITE-CA1 (TORONTO)     
1 40020U 14033L   24366.81738212  .00005121  00000+0  80422-3 0  9997
2 40020  97.9021 137.5091 0081266 179.8689 180.2553 14.70809683563906
QB50P2                  
1 40032U 14033Y   24366.83455882  .00018397  00000+0  13245-2 0  9998
2 40032  98.0264 325.4761 0009018 168.2118 191.9320 15.04226241572324
PERSEUS-M2              
1 40037U 14033AD  24366.88036011  .00005935  00000+0  58318-3 0  9992
2 40037  97.9430 298.7630 0011128 262.7127  97.2827 14.92491894571293
BRITE-PL2 (HEWELIUSZ)   
1 40119U 14049B   24366.86399829  .00006393  00000+0  64812-3 0  9992
2 40119  97.8868 106.0084 0016260  74.3660 285.9351 14.91148914562012
LMRST-SAT               
1 40971U 15058H   24366.59323510  .00012950  00000+0  11096-2 0  9994
2 40971  64.7768 124.2939 0184101 246.2906 111.8794 14.85590153 34284
PROPCUBE 3              
1 40973U 15058K   24366.81524759  .00016103  00000+0  13049-2 0  9993
2 40973  64.7709 109.3389 0179738 247.7802 110.4157 14.88021740 35390
AEROCUBE 8C             
1 41853U 16067F   24366.98561055  .00020007  00000+0  11153-2 0  9992
2 41853  98.0924 186.0144 0007736  88.2242 271.9874 15.13605960445241
PROMETHEUS 2-1          
1 41854U 16067G   25001.01680203  .00063644  00000+0  20683-2 0  9993
2 41854  98.0906 197.7067 0009739  89.4729 270.7626 15.31633024445854
CORVUS BC2              
1 42846U 17042X   24366.42194134  .00009369  00000+0  73890-3 0  9993
2 42846  97.3662 180.9862 0013425 110.3745 249.8924 15.00873902406990
SPACEBEE-7              
1 43816U 18099BL  24366.44419382  .00039658  00000+0  16453-2 0  9996
2 43816  97.5222  68.9892 0007126 329.6493  30.4330 15.23725504332314
SHIELDS 1               
1 43850U 18104B   24366.77557866  .00041035  00000+0  75666-3 0  9991
2 43850  85.0201 148.0045 0009781  45.8425 314.3634 15.48903673336623
M2 PATHFINDER           
1 45727U 20037E   24366.44010124  .00009096  00000+0  73378-3 0  9998
2 45727  97.7772 182.3437 0011662 161.3691 198.7961 15.00051406245483
GRBALPHA                
1 47959U 21022AD  25001.13999468  .00101987  00000+0  20857-2 0  9997
2 47959  97.4392 267.4165 0010713 132.5483 227.6672 15.45697971207756
SITRO-AIS 6 (CHIRKIN)   
1 57192U 23091AC  25001.09483278  .00020956  00000+0  11230-2 0  9998
2 57192  97.5848  58.1393 0015921 157.8817 202.3105 15.14910196 83394
SITRO-AIS 11 (SHEFFER)  
1 57208U 23091AU  24366.92903499  .00027774  00000+0  13426-2 0  9997
2 57208  97.5860  60.0001 0011208 138.4693 221.7394 15.18529760 83498
SITRO-AIS 34            
1 59058U 24039H   25001.13552272  .00111360  00000+0  19547-2 0  9999
2 59058  97.4109 330.4987 0007994 208.2278 151.8541 15.50101735 47005
SITRO-AIS 36            
1 59059U 24039J   25001.17786991  .00108797  00000+0  19045-2 0  9994
2 59059  97.4101 330.5887 0007687 208.2570 151.8266 15.50191520 47018
